start=new Date('2023-01-02T00:00:00.000Z').valueOf();
sats=[{"TLE_LINE2":"2 51751  53.2154 128.3481 0002508  33.0934 327.0214 15.08840698 49297","LAUNCH_DATE":"2022-02-21","INCLINATION":"53.2154","RA_OF_ASC_NODE":"128.3481","OBJECT_NAME":"STARLINK-3506","TIME_SYSTEM":"UTC","EPOCH":"2023-01-02T01:35:17.328192","MEAN_MOTION_DDOT":"0.0000000000000","SITE":"AFETR","TLE_LINE1":"1 51751U 22016AP  23002.06617278 -.00001616  00000-0 -83416-4 0  9996","DECAY_DATE":null,"BSTAR":"-0.00008341600000","COUNTRY_CODE":"US","GP_ID":"221996366","OBJECT_TYPE":"PAYLOAD","MEAN_ANOMALY":"327.0214","OBJECT_ID":"2022-016AP","ECCENTRICITY":"0.00025080","REV_AT_EPOCH":"4929","MEAN_MOTION":"15.08840698","ARG_OF_PERICENTER":"33.0934","FILE":"3729083","APOAPSIS":"541.478","REF_FRAME":"TEME","RCS_SIZE":"LARGE","CLASSIFICATION_TYPE":"U","NORAD_CAT_ID":"51751","CENTER_NAME":"EARTH","MEAN_MOTION_DOT":"-0.00001616","MEAN_ELEMENT_THEORY":"SGP4","ELEMENT_SET_NO":"999","PERIAPSIS":"538.008","EPHEMERIS_TYPE":"0","PERIOD":"95.438","SEMIMAJOR_AXIS":"6917.878"},{"SEMIMAJOR_AXIS":"6917.867","PERIAPSIS":"537.606","EPHEMERIS_TYPE":"0","PERIOD":"95.437","MEAN_ELEMENT_THEORY":"SGP4","MEAN_MOTION_DOT":"0.00000000","ELEMENT_SET_NO":"999","CLASSIFICATION_TYPE":"U","NORAD_CAT_ID":"51752","CENTER_NAME":"EARTH","RCS_SIZE":"LARGE","REF_FRAME":"TEME","ARG_OF_PERICENTER":"34.7096","MEAN_MOTION":"15.08844508","APOAPSIS":"541.857","FILE":"3728952","ECCENTRICITY":"0.00030720","OBJECT_ID":"2022-016AQ","REV_AT_EPOCH":"4811","COUNTRY_CODE":"US","MEAN_ANOMALY":"325.4096","GP_ID":"221989835","OBJECT_TYPE":"PAYLOAD","TLE_LINE1":"1 51752U 22016AQ  23001.58777226  .00000000  00000-0  18147-4 0  9996","SITE":"AFETR","DECAY_DATE":null,"BSTAR":"0.00001814700000","MEAN_MOTION_DDOT":"0.0000000000000","EPOCH":"2023-01-01T14:06:23.523264","TIME_SYSTEM":"UTC","INCLINATION":"53.2160","OBJECT_NAME":"STARLINK-3511","RA_OF_ASC_NODE":"130.4981","LAUNCH_DATE":"2022-02-21","TLE_LINE2":"2 51752  53.2160 130.4981 0003072  34.7096 325.4096 15.08844508 48112"},{"REF_FRAME":"TEME","RCS_SIZE":"LARGE","APOAPSIS":"542.380","FILE":"3728952","ARG_OF_PERICENTER":"36.3100","MEAN_MOTION":"15.08823069","PERIOD":"95.439","EPHEMERIS_TYPE":"0","PERIAPSIS":"537.215","SEMIMAJOR_AXIS":"6917.932","NORAD_CAT_ID":"51753","CENTER_NAME":"EARTH","CLASSIFICATION_TYPE":"U","ELEMENT_SET_NO":"999","MEAN_ELEMENT_THEORY":"SGP4","MEAN_MOTION_DOT":"-0.00005690","OBJECT_NAME":"STARLINK-3507","RA_OF_ASC_NODE":"129.8681","INCLINATION":"53.2153","TIME_SYSTEM":"UTC","TLE_LINE2":"2 51753  53.2153 129.8681 0003733  36.3100 323.8145 15.08823069 48130","LAUNCH_DATE":"2022-02-21","MEAN_ANOMALY":"323.8145","OBJECT_TYPE":"PAYLOAD","GP_ID":"221991085","COUNTRY_CODE":"US","REV_AT_EPOCH":"4813","ECCENTRICITY":"0.00037330","OBJECT_ID":"2022-016AR","MEAN_MOTION_DDOT":"0.0000000000000","EPOCH":"2023-01-01T17:27:46.562400","TLE_LINE1":"1 51753U 22016AR  23001.72762225 -.00005690  00000-0 -33975-3 0  9993","DECAY_DATE":null,"BSTAR":"-0.00033975000000","SITE":"AFETR"},{"TLE_LINE2":"2 51754  53.2172 130.2236 0003337  47.1482 312.9790 15.08829465 48127","LAUNCH_DATE":"2022-02-21","OBJECT_NAME":"STARLINK-3457","RA_OF_ASC_NODE":"130.2236","INCLINATION":"53.2172","TIME_SYSTEM":"UTC","MEAN_MOTION_DDOT":"0.0000000000000","EPOCH":"2023-01-01T15:32:33.853920","TLE_LINE1":"1 51754U 22016AS  23001.64761405 -.00000656  00000-0 -23074-4 0  9991","BSTAR":"-0.00002307400000","DECAY_DATE":null,"SITE":"AFETR","MEAN_ANOMALY":"312.9790","OBJECT_TYPE":"PAYLOAD","GP_ID":"221991335","COUNTRY_CODE":"US","REV_AT_EPOCH":"4812","ECCENTRICITY":"0.00033370","OBJECT_ID":"2022-016AS","APOAPSIS":"542.086","FILE":"3728952","ARG_OF_PERICENTER":"47.1482","MEAN_MOTION":"15.08829465","REF_FRAME":"TEME","RCS_SIZE":"LARGE","CENTER_NAME":"EARTH","NORAD_CAT_ID":"51754","CLASSIFICATION_TYPE":"U","ELEMENT_SET_NO":"999","MEAN_ELEMENT_THEORY":"SGP4","MEAN_MOTION_DOT":"-0.00000656","PERIOD":"95.438","EPHEMERIS_TYPE":"0","PERIAPSIS":"537.469","SEMIMAJOR_AXIS":"6917.913"},{"FILE":"3728952","APOAPSIS":"541.884","MEAN_MOTION":"15.08835224","ARG_OF_PERICENTER":"36.1615","RCS_SIZE":"LARGE","REF_FRAME":"TEME","ELEMENT_SET_NO":"999","MEAN_MOTION_DOT":"-0.00002217","MEAN_ELEMENT_THEORY":"SGP4","CENTER_NAME":"EARTH","NORAD_CAT_ID":"51755","CLASSIFICATION_TYPE":"U","SEMIMAJOR_AXIS":"6917.895","PERIOD":"95.438","EPHEMERIS_TYPE":"0","PERIAPSIS":"537.636","LAUNCH_DATE":"2022-02-21","TLE_LINE2":"2 51755  53.2151 129.6173 0003071  36.1615 323.9584 15.08835224 48143","TIME_SYSTEM":"UTC","RA_OF_ASC_NODE":"129.6173","OBJECT_NAME":"STARLINK-3460","INCLINATION":"53.2151","TLE_LINE1":"1 51755U 22016AT  23001.78280888 -.00002217  00000-0 -12118-3 0  9999","SITE":"AFETR","DECAY_DATE":null,"BSTAR":"-0.00012118000000","EPOCH":"2023-01-01T18:47:14.687232","MEAN_MOTION_DDOT":"0.0000000000000","REV_AT_EPOCH":"4814","OBJECT_ID":"2022-016AT","ECCENTRICITY":"0.00030710","GP_ID":"221989585","OBJECT_TYPE":"PAYLOAD","MEAN_ANOMALY":"323.9584","COUNTRY_CODE":"US"},{"RCS_SIZE":"LARGE","REF_FRAME":"TEME","FILE":"3729083","APOAPSIS":"541.482","MEAN_MOTION":"15.08845290","ARG_OF_PERICENTER":"47.0799","SEMIMAJOR_AXIS":"6917.864","PERIOD":"95.437","EPHEMERIS_TYPE":"0","PERIAPSIS":"537.976","ELEMENT_SET_NO":"999","MEAN_MOTION_DOT":"-0.00001485","MEAN_ELEMENT_THEORY":"SGP4","NORAD_CAT_ID":"51756","CENTER_NAME":"EARTH","CLASSIFICATION_TYPE":"U","TIME_SYSTEM":"UTC","RA_OF_ASC_NODE":"128.2671","OBJECT_NAME":"STARLINK-3513","INCLINATION":"53.2176","LAUNCH_DATE":"2022-02-21","TLE_LINE2":"2 51756  53.2176 128.2671 0002534  47.0799 313.0405 15.08845290 49266","REV_AT_EPOCH":"4926","OBJECT_ID":"2022-016AU","ECCENTRICITY":"0.00025340","GP_ID":"221996376","OBJECT_TYPE":"PAYLOAD","MEAN_ANOMALY":"313.0405","COUNTRY_CODE":"US","TLE_LINE1":"1 51756U 22016AU  23002.08456871 -.00001485  00000-0 -75164-4 0  9998","DECAY_DATE":null,"SITE":"AFETR","BSTAR":"-0.00007516400000","EPOCH":"2023-01-02T02:01:46.736544","MEAN_MOTION_DDOT":"0.0000000000000"},{"ARG_OF_PERICENTER":"42.2659","MEAN_MOTION":"15.08827542","APOAPSIS":"541.575","FILE":"3729083","REF_FRAME":"TEME","RCS_SIZE":"LARGE","CLASSIFICATION_TYPE":"U","NORAD_CAT_ID":"51757","CENTER_NAME":"EARTH","MEAN_ELEMENT_THEORY":"SGP4","MEAN_MOTION_DOT":"-0.00002561","ELEMENT_SET_NO":"999","EPHEMERIS_TYPE":"0","PERIAPSIS":"537.992","PERIOD":"95.438","SEMIMAJOR_AXIS":"6917.918","TLE_LINE2":"2 51757  53.2175 128.2928 0002589  42.2659 317.8532 15.08827542 49301","LAUNCH_DATE":"2022-02-21","INCLINATION":"53.2175","OBJECT_NAME":"STARLINK-3459","RA_OF_ASC_NODE":"128.2928","TIME_SYSTEM":"UTC","MEAN_MOTION_DDOT":"0.0000000000000","EPOCH":"2023-01-02T01:56:29.934528","TLE_LINE1":"1 51757U 22016AV  23002.08090202 -.00002561  00000-0 -14289-3 0  9997","SITE":"AFETR","DECAY_DATE":null,"BSTAR":"-0.00014289000000","COUNTRY_CODE":"US","MEAN_ANOMALY":"317.8532","GP_ID":"221996368","OBJECT_TYPE":"PAYLOAD","ECCENTRICITY":"0.00025890","OBJECT_ID":"2022-016AV","REV_AT_EPOCH":"4930"},{"MEAN_ELEMENT_THEORY":"SGP4","MEAN_MOTION_DOT":"-0.00003780","ELEMENT_SET_NO":"999","CLASSIFICATION_TYPE":"U","CENTER_NAME":"EARTH","NORAD_CAT_ID":"51758","SEMIMAJOR_AXIS":"6917.922","PERIAPSIS":"537.862","EPHEMERIS_TYPE":"0","PERIOD":"95.438","ARG_OF_PERICENTER":"45.8208","MEAN_MOTION":"15.08826497","APOAPSIS":"541.711","FILE":"3728952","RCS_SIZE":"LARGE","REF_FRAME":"TEME","SITE":"AFETR","TLE_LINE1":"1 51758U 22016AW  23001.74698248 -.00003780  00000-0 -21956-3 0  9997","DECAY_DATE":null,"BSTAR":"-0.00021956000000","MEAN_MOTION_DDOT":"0.0000000000000","EPOCH":"2023-01-01T17:55:39.286272","ECCENTRICITY":"0.00027820","OBJECT_ID":"2022-016AW","REV_AT_EPOCH":"4928","COUNTRY_CODE":"US","MEAN_ANOMALY":"314.3012","GP_ID":"221990836","OBJECT_TYPE":"PAYLOAD","LAUNCH_DATE":"2022-02-21","TLE_LINE2":"2 51758  53.2166 129.7821 0002782  45.8208 314.3012 15.08826497 49284","TIME_SYSTEM":"UTC","INCLINATION":"53.2166","OBJECT_NAME":"STARLINK-3458","RA_OF_ASC_NODE":"129.7821"},{"EPOCH":"2023-01-01T14:43:29.483616","MEAN_MOTION_DDOT":"0.0000000000000","TLE_LINE1":"1 51759U 22016AX  23001.61353569 -.00002261  00000-0 -12394-3 0  9997","DECAY_DATE":null,"SITE":"AFETR","BSTAR":"-0.00012394000000","OBJECT_TYPE":"PAYLOAD","GP_ID":"221934213","MEAN_ANOMALY":"319.5007","COUNTRY_CODE":"US","REV_AT_EPOCH":"4812","OBJECT_ID":"2022-016AX","ECCENTRICITY":"0.00030530","TLE_LINE2":"2 51759  53.2165 130.3871 0003053  40.6212 319.5007 15.08838849 48124","LAUNCH_DATE":"2022-02-21","RA_OF_ASC_NODE":"130.3871","OBJECT_NAME":"STARLINK-3456","INCLINATION":"53.2165","TIME_SYSTEM":"UTC","NORAD_CAT_ID":"51759","CENTER_NAME":"EARTH","CLASSIFICATION_TYPE":"U","ELEMENT_SET_NO":"999","MEAN_MOTION_DOT":"-0.00002261","MEAN_ELEMENT_THEORY":"SGP4","PERIOD":"95.438","PERIAPSIS":"537.637","EPHEMERIS_TYPE":"0","SEMIMAJOR_AXIS":"6917.884","FILE":"3728759","APOAPSIS":"541.861","MEAN_MOTION":"15.08838849","ARG_OF_PERICENTER":"40.6212","REF_FRAME":"TEME","RCS_SIZE":"LARGE"},{"PERIOD":"95.438","EPHEMERIS_TYPE":"0","PERIAPSIS":"537.589","SEMIMAJOR_AXIS":"6917.900","NORAD_CAT_ID":"51768","CENTER_NAME":"EARTH","CLASSIFICATION_TYPE":"U","ELEMENT_SET_NO":"999","MEAN_MOTION_DOT":"-0.00002181","MEAN_ELEMENT_THEORY":"SGP4","REF_FRAME":"TEME","RCS_SIZE":"LARGE","FILE":"3729100","APOAPSIS":"541.941","MEAN_MOTION":"15.08833625","ARG_OF_PERICENTER":"42.1203","GP_ID":"221996745","OBJECT_TYPE":"PAYLOAD","MEAN_ANOMALY":"318.0030","COUNTRY_CODE":"US","REV_AT_EPOCH":"4848","OBJECT_ID":"2022-017A","ECCENTRICITY":"0.00031460","EPOCH":"2023-01-01T17:02:36.245472","MEAN_MOTION_DDOT":"0.0000000000000","SITE":"AFWTR","TLE_LINE1":"1 51768U 22017A   23001.71014173 -.00002181  00000-0 -11892-3 0  9997","DECAY_DATE":null,"BSTAR":"-0.00011892000000","RA_OF_ASC_NODE":"159.9416","OBJECT_NAME":"STARLINK-3622","INCLINATION":"53.2172","TIME_SYSTEM":"UTC","TLE_LINE2":"2 51768  53.2172 159.9416 0003146  42.1203 318.0030 15.08833625 48480","LAUNCH_DATE":"2022-02-25"}];
